IRIDIUM 171             
1 43929U 19002H   24111.61428749  .00000737  00000+0  25624-3 0  9997
2 43929  86.3963 322.9514 0001967  82.4600 277.6819 14.34219682276075
IRIDIUM 170             
1 43930U 19002J   24111.62333809  .00002623  00000+0  41185-3 0  9998
2 43930  86.6083 322.7775 0002284  92.0859 268.0619 14.72264692283383
IRIDIUM 167             
1 43931U 19002K   24111.60794619  .00000245  00000+0  80425-4 0  9996
2 43931  86.3953 322.7505 0002071  86.3991 273.7442 14.34218870276075
IRIDIUM 181             
1 56726U 23068S   24111.22796628  .00001233  00000+0  35849-3 0  9996
2 56726  86.8690  13.7985 0002119  79.9045 280.2396 14.43582382 48771
IRIDIUM 177             
1 56727U 23068T   24111.62864640  .00004276  00000+0  55947-3 0  9992
2 56727  86.2000 342.7001 0001948  93.8842 266.2602 14.80203626 49861
IRIDIUM 174             
1 56728U 23068U   24111.62321863  .00004292  00000+0  56135-3 0  9996
2 56728  86.2007 342.8022 0002646  90.5494 269.6030 14.80218483 49865
IRIDIUM 178             
1 56729U 23068V   24111.61780385  .00004551  00000+0  59526-3 0  9999
2 56729  86.5831 357.5318 0002785  90.4365 269.7176 14.80233493 49865
IRIDIUM 179             
1 56730U 23068W   24111.20676798  .00004663  00000+0  61026-3 0  9990
2 56730  86.6844   1.1083 0003004  96.6807 263.4756 14.80222884 49808
